{
    "links": {
        "self": "http://www.neowsapp.com/rest/v1/neo/3577159?api_key=iIulBulltgU6a56xZRHN4H3l9WmuAYTsLGpBGhQ2"
    },
    "id": "3577159",
    "neo_reference_id": "3577159",
    "name": "(2011 QH50)",
    "designation": "2011 QH50",
    "nasa_jpl_url": "http://ssd.jpl.nasa.gov/sbdb.cgi?sstr=3577159",
    "absolute_magnitude_h": 25.0,
    "estimated_diameter": {
        "kilometers": {
            "estimated_diameter_min": 0.02658,
            "estimated_diameter_max": 0.0594346868
        },
        "meters": {
            "estimated_diameter_min": 26.58,
            "estimated_diameter_max": 59.4346868419
        },
        "miles": {
            "estimated_diameter_min": 0.0165160412,
            "estimated_diameter_max": 0.0369309908
        },
        "feet": {
            "estimated_diameter_min": 87.2047272,
            "estimated_diameter_max": 194.9956979785
        }
    },
    "is_potentially_hazardous_asteroid": false,
    "close_approach_data": [
        {
            "close_approach_date": "2011-08-23",
            "close_approach_date_full": "2011-Aug-23 02:39",
            "epoch_date_close_approach": 1314067140000,
            "relative_velocity": {
                "kilometers_per_second": "5.0428440449",
                "kilometers_per_hour": "18154.2385616822",
                "miles_per_hour": "11280.337844063"
            },
            "miss_distance": {
                "astronomical": "0.1033435463",
                "lunar": "40.2006395107",
                "kilometers": "15459974.404726381",
                "miles": "9606382.6412148178"
            },
            "orbiting_body": "Earth"
        }
    ],
    "orbital_data": {
        "orbit_id": "7",
        "orbit_determination_date": "2017-04-06 08:52:55",
        "first_observation_date": "2011-08-31",
        "last_observation_date": "2011-09-18",
        "data_arc_in_days": 18,
        "observations_used": 22,
        "orbit_uncertainty": "8",
        "minimum_orbit_intersection": ".0965904",
        "jupiter_tisserand_invariant": "3.655",
        "epoch_osculation": "2455806.5",
        "eccentricity": ".4587969792557032",
        "semi_major_axis": "2.048195005108707",
        "inclination": "1.155718798743142",
        "ascending_node_longitude": "172.7034294628971",
        "orbital_period": "1070.669376116299",
        "perihelion_distance": "1.108489323838213",
        "perihelion_argument": "153.2192506905134",
        "aphelion_distance": "2.987900686379202",
        "perihelion_time": "2455794.908608732222",
        "mean_anomaly": "3.897469143590047",
        "mean_motion": ".3362382524714109",
        "equinox": "J2000",
        "orbit_class": {
            "orbit_class_type": "AMO",
            "orbit_class_description": "Near-Earth asteroid orbits similar to that of 1221 Amor",
            "orbit_class_range": "1.017 AU < q (perihelion) < 1.3 AU"
        }
    },
    "is_sentry_object": false
}